OBJECT_NAME,OBJECT_ID,EPOCH,MEAN_MOTION,ECCENTRICITY,INCLINATION,RA_OF_ASC_NODE,ARG_OF_PERICENTER,MEAN_ANOMALY,EPHEMERIS_TYPE,CLASSIFICATION_TYPE,NORAD_CAT_ID,ELEMENT_SET_NO,REV_AT_EPOCH,BSTAR,MEAN_MOTION_DOT,MEAN_MOTION_DDOT
CUBEBUG-2 (LO-74),2013-066AA,2026-06-17T19:12:02.706912,14.93766530,.00583503,97.8909,117.7807,27.1118,333.3127,0,U,39440,999,67708,.37357377E-3,.4032E-4,0
FUNCUBE-1 (AO-73),2013-066AE,2026-06-17T20:26:54.255840,15.09497500,.00356938,97.8280,140.3117,198.4504,161.5433,0,U,39444,999,67976,.32650119E-3,.5241E-4,0
UWE-3,2013-066AG,2026-06-17T19:36:47.286144,14.97029101,.00474681,97.8697,124.8951,319.0483,40.7177,0,U,39446,999,67767,.31731942E-3,.3675E-4,0
UNISAT-6,2014-033C,2026-06-17T09:39:12.738528,14.88246960,.00462463,97.7880,321.1100,68.6169,291.9973,0,U,40012,999,64619,.20611546E-3,.1884E-4,0
DUCHIFAT-1,2014-033M,2026-06-17T17:24:13.190688,15.64688216,.00027414,98.0453,227.9612,116.8844,243.2694,0,U,40021,999,65583,.92235444E-3,.90047E-3,0
QB50P1,2014-033R,2026-06-17T13:05:32.140032,15.18264690,.0007823,98.0960,179.7168,213.7845,146.2890,0,U,40025,999,65308,.28772E-3,.5822E-4,0
LILACSAT-2,2015-049K,2026-06-17T22:00:49.576608,15.51465372,.00055407,97.4639,205.7867,241.2363,118.8333,0,U,40908,999,59586,.24489272E-3,.14369E-3,0
FOX-1A (AO-85),2015-058D,2026-06-17T14:54:02.221920,14.90971345,.01304986,64.7761,277.6363,56.4134,304.9355,0,U,40967,999,11363,.17288103E-3,.1835E-4,0
CAS-2T & KS-1Q,2016-066G,2026-06-17T19:04:23.019168,14.44696391,.03428132,98.3822,244.5241,127.6417,235.6409,0,U,41847,999,50488,.2077305E-3,.1433E-4,0
RADFXSAT (FOX-1B),2017-073E,2026-06-17T14:31:00.659136,15.12722439,.0149538,97.4696,35.8108,327.7970,31.4193,0,U,43017,999,46545,.24962E-3,.5679E-4,0
DIWATA-2B,2018-084H,2026-06-17T21:40:57.249696,15.00455855,.00125144,98.1177,5.1429,167.7661,192.3868,0,U,43678,999,41632,.18436771E-3,.2258E-4,0
ES'HAIL 2,2018-090A,2026-06-17T21:38:46.388256,1.00271041,.00016566,0.0174,17.6316,106.4246,132.5644,0,U,43700,999,2768,0,.138E-5,0
FOX-1CLIFF (AO-95),2018-099N,2026-06-17T09:43:46.294752,15.26715554,.00079519,97.4379,228.6506,357.1065,3.0126,0,U,43770,999,41325,.33623107E-3,.877E-4,0
ITASAT,2018-099AE,2026-06-17T14:44:54.793248,15.19062139,.00120391,97.4024,220.1177,358.8132,1.3072,0,U,43786,999,41297,.27236727E-3,.5652E-4,0
JY1SAT (JO-97),2018-099AX,2026-06-17T03:51:50.109696,15.33652151,.00043325,97.4126,230.9950,262.3288,97.7462,0,U,43803,999,41362,.39004137E-3,.12621E-3,0
UWE-4,2018-111E,2026-06-17T19:08:32.335008,15.46158858,.00054256,97.5854,97.2166,339.8201,20.2832,0,U,43880,999,41087,.56593194E-3,.27737E-3,0
TIANYAN 01,2019-093C,2026-06-17T23:41:27.885984,14.86519925,.00151091,97.7535,241.1997,84.2682,276.0256,0,U,44881,999,35153,.40778376E-4,.308E-5,0
RS-44 & BREEZE-KM R/B,2019-096E,2026-06-17T20:45:52.372800,12.79748849,.02181968,82.5219,339.2542,142.5859,219.0663,0,U,44909,999,30243,.1122808E-5,.13E-6,0
SALSAT,2020-068K,2026-06-17T12:54:41.050368,15.29803905,.000804,97.8847,171.6239,306.6544,53.3955,0,U,46495,999,31541,.21821E-3,.6219E-4,0
XW-3 (CAS-9),2021-131B,2026-06-17T22:58:10.089408,14.41357252,.00053951,98.4987,261.3426,94.8981,265.2824,0,U,50466,999,23522,.68524187E-4,.178E-5,0
GREENCUBE (IO-117),2022-080E,2026-06-13T07:02:28.697280,6.42583230,.00089108,70.1444,299.5995,290.4576,69.5127,0,U,53109,999,9181,0,-.3E-7,0
UMKA 1 (RS40S),2023-091G,2026-06-17T22:46:56.607456,15.20826055,.00142479,97.5047,227.6436,115.2479,245.0235,0,U,57172,999,16412,.22029709E-3,.4802E-4,0
CUBESX-HSE 3 (RS42S),2023-091N,2026-06-17T21:25:28.066080,15.31230297,.00120296,97.5089,234.4887,92.6817,267.5801,0,U,57178,999,16453,.35294132E-3,.10594E-3,0
MONITOR-3 (RS58S),2023-091Q,2026-06-17T22:02:58.475904,15.27854318,.00131009,97.5079,232.3700,98.5751,261.6973,0,U,57180,999,16440,.3338722E-3,.9028E-4,0
MONITOR-4 (RS57S),2023-091S,2026-06-17T21:32:45.472128,15.27939578,.00130936,97.5073,232.3204,98.9441,261.3281,0,U,57182,999,16440,.31854941E-3,.8632E-4,0
MONITOR-2 (RS39S),2023-091U,2026-06-17T21:44:03.687072,15.18916443,.00127491,97.5069,227.1838,108.9465,251.3152,0,U,57184,999,16406,.21160974E-3,.4357E-4,0
SVYATOBOR 1 (RS60S),2023-091X,2026-06-17T21:52:29.345664,15.26626078,.0010876,97.5085,232.7323,92.3437,267.9047,0,U,57187,999,16442,.28823098E-3,.749E-4,0
VIZARD-METEO (RS38S),2023-091Z,2026-06-17T22:18:16.249536,15.36046699,.000822,97.5090,238.4294,75.4198,284.7956,0,U,57189,999,16480,.40901338E-3,.143E-3,0
POLYTECH-UNIVERSE 3 (RS46S),2023-091AB,2026-06-17T22:23:05.637696,15.19119061,.00168976,97.5044,226.7153,124.3485,235.9350,0,U,57191,999,16406,.19409572E-3,.402E-4,0
UTMN 2 (RS27S),2023-091AP,2026-06-17T21:50:14.271360,15.32067629,.00092199,97.5084,236.1409,81.5436,278.6850,0,U,57203,999,16465,.34929358E-3,.10752E-3,0
